#dP2021  8 10  0  0  0.00000000      96 __u+U ITR00 FIT  IAC
## 2170 172800.00000000   900.00000000 59436 0.0000000000000
+  116   C06C07C08C09C10C11C12C13C14C16C19C20C21C22C23C24C25
+        C26C27C28C29C30C32C33C34C35C36C37C38C39C40C41C42C43
+        C44C45C46E01E02E03E04E05E07E08E09E11E12E13E14E15E18
+        E19E21E24E25E26E27E30E31E33E36G01G02G03G04G05G06G07
+        G08G09G10G12G13G14G15G16G17G18G19G20G21G22G23G24G25
+        G26G27G28G29G30G31G32J01J02J03R01R02R03R04R05R07R08
+        R09R11R12R13R14R15R16R17R18R19R20R21R22R24  0  0  0
++         8  8  7  8  7  7  7  7  0  8  5  7  8  8  7  7  7
++         7  7  8  8  8  8  6  6  6  8  7 10  7  8  8  6  6
++         8  7  7  6  7  7  6  8  7  6  7  7  8  6  7  7  6
++         6  7  7  7  6  7  7  6  7  7  7  6  6  6  6  6  6
++         7  6  6  6  7  7  7  6  7  7  7  6  7  6  6  6  6
++         5  7  7  7  6  6  7 10  7  8  7  7  6  6  7  6  8
++         7  6  6  7  6  7  8  7  7  8  8  8  7  7  0  0  0
%c M  cc GPS ccc cccc cccc cccc cccc ccccc ccccc ccccc ccccc
%c cc cc ccc ccc cccc cccc cccc cccc ccccc ccccc ccccc ccccc
%f  0.0000000  0.000000000  0.00000000000  0.000000000000000
%f  0.0000000  0.000000000  0.00000000000  0.000000000000000
%i    0    0    0    0      0      0      0      0         0
%i    0    0    0    0      0      0      0      0         0
/* INFORMATION & ANALYSIS CENTER (IAC)      ULTRA-RAPID DATA
/* S/V CLOCKS ARE ALIGNED TO GNSS TIME                      
/* G:C1WC2W R:C1PC2P E:C1XC5X C:C2IC6I J:C1CC2S             
/* PCV:IGS14_2163 OL/AL:FES2004  NONE     YN ORB:CoN CLK:CoN
*  2021 08 10 20 30  0.00000000
PC06  -7503.611991  40545.314951  -8322.965085    740.552724
PC07 -11926.181394  24005.521535  32838.151018     24.761992
PC08 -25715.219913  27494.007990 -19251.726218   -918.778422
PC09  -2186.212855  41850.247027   1608.985438    -17.035569
PC10   2365.401840  29062.168218  30826.479806     -9.880940
PC11 -13447.207431  17471.183326  17193.836363    509.299184
PC12 -15166.122159  -2420.932538  23328.063463    785.952187
PC13 -11525.456956  28360.836068 -29026.145809    368.845429
PC14      0.000000      0.000000      0.000000 999999.999999
PC16  -9022.803804  39414.124384 -11451.319801   -868.012452
PC19   7110.248292 -14307.181899  22900.094496    942.051673
PC20  21332.536804   -157.657237  18019.027231   -822.783427
PC21 -23492.819013 -14893.392624  -2052.021123   -940.007259
PC22 -11688.935323 -20661.727186  14642.850654   -950.215018
PC23   1726.607078  16739.941014  22274.624853   -962.433829
PC24 -26296.421147   8030.234207  -4835.400087   -964.212013
PC25 -16550.828703  18307.360056  13043.835525   -872.322531
PC26 -20364.360821  -4873.962792 -18465.756087    866.264263
PC27  13117.516368  12987.837921 -20946.831873    578.784875
PC28   2661.534639  26594.591710  -8044.704043    -40.080282
PC29   8395.568732 -24845.427101  -9543.585062    431.561219
PC30  15622.119234  -8104.974591 -21668.516492    477.013143
PC32  23623.065437  14730.776275   2042.401151   -930.147181
PC33  -7087.330690  14334.277941 -22869.210709   -955.118022
PC34 -15554.852337   8936.620846  21359.077979   -608.012592
PC35  -3346.116110 -26639.182049   7653.094502   -145.781792
PC36  17307.780166 -17805.055982 -12702.800727   -741.944370
PC37  19519.264936   6083.351052  19011.330104   -861.685552
PC38 -22743.386400  29277.462531 -20216.801251    167.703617
PC39 -10231.601654  37132.190181 -16958.248817     32.690245
PC40  -1106.033551  24835.675393  34125.938950    189.052261
PC41  11486.512094  20628.813995 -14828.787423   -963.838325
PC42 -21735.450026   -502.007640 -17444.593054   -930.972413
PC43  -8853.525859  24496.853407   9980.272265   -861.880094
PC44 -13573.136683 -12802.325592  20747.819772    334.384937
PC45  -1894.934669 -16552.293644 -22371.483944    517.122784
PC46  26177.686652  -8833.517238   3820.065132    138.170826
PE01 -26879.983641   5779.931918  10972.553582  -1168.883261
PE02  26809.381405  -5856.187538 -11078.071865    239.015468
PE03  15773.197667  -6622.891550  24156.406850   -462.272863
PE04  -2361.669935  23437.407969 -17921.319836   -832.211788
PE05  20127.237704  14342.199278  16298.199724   -258.270906
PE07 -12699.136487 -26712.267156    972.717860   -572.214526
PE08   1890.259711 -23588.019607  17774.451608   5956.204526
PE09  12958.360488  26613.205686   -780.333971   5570.546197
PE11   2760.659886  20843.350996 -20846.119039   5596.218281
PE12 -13179.797197  26081.919566  -4685.040614   5066.908210
PE13  -2371.910375 -21100.290096  20619.616594    420.119284
PE14  21086.840952   1151.081690 -24572.726752  -1530.980213
PE15  13103.941918 -26120.461021   4700.674112    798.674583
PE18 -13970.155707   6517.027556  18220.290260  -1678.931005
PE19 -16751.999245   4063.548661 -24057.389427    348.974451
PE21 -28062.056896  -6341.927776  -6949.381538   -681.242788
PE24  11984.356859  15732.215759  22013.984563  -1055.755395
PE25  27978.102137   6490.976926   7176.985891   -542.828016
PE26 -17006.286685  -2867.212824  24055.018403   1476.701367
PE27 -13085.930324 -15401.684809 -21616.796932    -95.053210
PE30  10748.014879 -15048.231489 -23111.075793   2712.489648
PE31  -9472.351527  15350.609626  23483.011339   -484.257570
PE33 -20824.965319  15747.882644  13944.185855   -466.451416
PE36  16409.390782   3680.999950 -24362.146625   -246.599640
PG01 -12372.877985  21579.537641  -9081.590760    601.521982
PG02  20223.719101 -11456.191365 -12263.220002   -625.486834
PG03  -7590.526571  13466.481463 -21687.001777   -249.660335
PG04  -2247.768255  23667.690031 -11771.440163   -203.746035
PG05  19450.140066  -7830.622443  16238.634588    -50.706899
PG06  17334.729713   1059.364471 -20054.746656     53.886631
PG07   1310.008245  18480.344920  19215.126245    222.183366
PG08  -9002.948642  15645.773960  19363.219658    -32.151008
PG09   7178.308256  25527.700528  -1339.018825   -358.429277
PG10 -21981.397758 -11849.242699   9561.861324   -179.861452
PG12   8584.960456 -12888.556541 -21813.882386    -81.069346
PG13  13629.908955  -7597.203708  21335.183403    169.574549
PG14  21661.465358  12607.478806   8861.283483     26.772069
PG15   7572.721682 -17029.694589  18418.558462   -129.303321
PG16 -23592.226964   1007.944358  12357.285770   -371.577362
PG17  12635.813186  20077.909922 -11507.275628    487.382863
PG18  -2737.059690 -17011.491623  20175.357255    333.933887
PG19  14998.510473  12046.431217 -18657.382744     37.919365
PG20  25658.203698  -2174.882152   5888.600759    519.720668
PG21 -16835.839475  20163.130746    603.617649    136.473881
PG22 -15015.950038  11636.967558 -18305.009801   -541.504550
PG23 -12294.532350 -15247.920796  17944.197818     72.567883
PG24  14200.181415 -21903.307450  -3794.885023    204.324997
PG25  -4035.688612 -16082.000978 -21064.395006    188.912529
PG26 -26363.184140  -4150.204235   1066.807468    121.111563
PG27 -14061.411627   4646.232074  21863.443544   -176.358475
PG28  23988.606410  10716.747826   3641.309398    522.196762
PG29  -3649.236817 -26087.539070  -3168.753824   -394.185394
PG30  12271.354844   9998.301374  21406.339791   -460.775213
PG31 -19063.159096    407.295602 -18765.586055   -133.555164
PG32 -15331.090833 -16757.585794 -13796.198311      8.611130
PJ01 -21189.952122  19738.153729 -26080.440283   -436.418299
PJ02 -30958.749442  23094.634758  21786.536283     -1.450431
PJ03 -28404.665537  27107.033404  20507.021995     -0.710320
PR01 -18439.817214 -17583.710538  -1041.535226     83.643083
PR02 -16517.345060  -4404.349978 -18917.515407    489.210294
PR03  -4767.604791  10561.181672 -22677.579941     41.035443
PR04   9601.911309  19243.720420 -13685.993935     99.619950
PR05  18469.629236  17330.356014   2945.494633     76.923883
PR07   4174.247700 -11131.399019  22609.419814    -41.707355
PR08  -9584.209160 -19314.908636  13699.553078    -60.313656
PR09  24858.377073  -5469.762671   2228.628474      7.425182
PR11    519.754807 -11314.471385 -22840.448785     46.157407
PR12 -17697.880030  -4276.049653 -17838.844986    252.579340
PR13 -24806.565499   5097.313781  -3037.880412    -58.982543
PR14 -17308.986246  11735.536410  14610.452418     67.502926
PR15     39.638757  11298.695035  22895.303033    102.166784
PR16  18565.221448   3429.837640  17071.907519    -19.348292
PR17 -10431.443214  21586.782634   8779.923177    448.690845
PR18  -3296.925446  23918.967551  -8151.176332     86.485048
PR19   4774.002799  14588.618408 -20382.472087   -154.904598
PR20  12078.796908  -6046.262778 -21644.613427    -53.921711
PR21  10096.866977 -22145.436859  -7584.762255   -230.535086
PR22   2955.398855 -23691.813783   9081.624569   -127.192608
PR24 -12483.281222   6859.415171  21176.693862     53.994387
EOF
